JILIN-1 GAOFEN 03D15    
1 51839U 22019R   26136.71933834  .00347578  48748-4  97126-3 0  9993
2 51839  97.3642 232.5636 0006213 227.8658 132.2090 15.93618978235101
JILIN-1 GAOFEN 03D12    
1 51841U 22019T   26136.88052760  .00402805  66574-4  10445-2 0  9994
2 51841  97.3651 232.6857 0006555 222.8902 137.1863 15.95028030235137
2022-023F               
1 51951U 22023F   26136.85284265  .00018295  00000+0  72993-3 0  9995
2 51951  63.4483  20.0064 0128191 343.8517  15.8525 15.17960542232953
MERIDIAN 10             
1 52145U 22030A   26136.06895968  .00000257  00000+0  00000+0 0  9995
2 52145  62.6772 144.2440 6775217 272.8806  17.7130  2.00616194 30388
OMNI-L1                 
1 52157U 22033A   26136.79764244  .00001073  00000+0  13974-3 0  9998
2 52157  97.8396 216.5872 0005915  41.0841 319.0817 14.82621479222800
ENMAP                   
1 52159U 22033C   26136.82391965  .00000380  00000+0  63980-4 0  9993
2 52159  97.9794 219.5184 0001496  84.4788 275.6592 14.74959530222030
ARCSAT-1                
1 52161U 22033E   26136.49243152  .00011750  00000+0  19138-3 0  9991
2 52161  97.2749 228.3158 0003547 326.0448  34.0578 15.52788265230786
GLOBAL-18               
1 52196U 22034B   26136.76356274  .00020304  00000+0  43303-3 0  9996
2 52196  52.9825  46.6574 0005373 139.0212 221.1198 15.44891872232105
GAOFEN-3 03             
1 52200U 22035A   26136.87084829  .00000062  00000+0  31878-4 0  9993
2 52200  98.4068 145.9046 0001012  78.0369 282.0934 14.42219476216335
DAQI-1                  
1 52257U 22039A   26136.77531271  .00000131  00000+0  38519-4 0  9992
2 52257  98.1474  76.2790 0004001  14.0546 346.0763 14.57656677217364
BRO-6                   
1 52422U 22047AE  26136.68730944  .00029229  00000+0  54843-3 0  9999
2 52422  97.3404 227.1882 0005425 172.1921 187.9415 15.48576272226274
JILIN-1 GAOFEN 3D27     
1 52444U 22048B   26136.76915154  .00082606  00000+0  71913-3 0  9996
2 52444  97.5685 248.0419 0005377 158.3676 201.7813 15.68758990224544
JILIN-1 GAOFEN 3D28     
1 52445U 22048C   26136.75519034  .00090266  00000+0  71941-3 0  9995
2 52445  97.5627 248.0760 0004277 176.1101 184.0196 15.70884510224581
VIGORIDE-3              
1 52760U 22057AE  26136.82992031  .00003918  00000+0  15106-3 0  9994
2 52760  97.6562 275.9904 0007444 227.4779 132.5831 15.26924429220371
ION SCV-006             
1 52761U 22057AF  26136.81522573  .00008220  00000+0  17852-3 0  9995
2 52761  97.6062 283.9601 0016783 223.9955 135.9958 15.44497226221270
SHERPA-AC1              
1 52763U 22057AH  26136.86234203  .00005970  00000+0  17384-3 0  9991
2 52763  97.6646 284.8024 0007424 194.0094 166.0944 15.35790847220895
OMNI-L2                 
1 52771U 22057AR  26136.64480749  .00000871  00000+0  11774-3 0  9996
2 52771  97.4729 201.1221 0008229  74.1107 286.1013 14.81278949215723
STEP CUBE LAB-II        
1 52897U 22065D   26136.88605102  .00000565  00000+0  11900-3 0  9993
2 52897  98.2176 280.8924 0009703 118.7116 241.5062 14.63249032206926
RANDEV                  
1 52898U 22065E   26136.82701516  .00000536  00000+0  11231-3 0  9999
2 52898  98.2162 281.1712 0009036 119.0275 241.1834 14.63633955206665
SNUGLITE-II             
1 52899U 22065F   26136.39332805  .00000590  00000+0  12099-3 0  9996
2 52899  98.2159 281.2890 0008664 119.9133 240.2931 14.64283145206344
MIMAN                   
1 52900U 22065G   26136.63052501  .00000330  00000+0  75584-4 0  9999
2 52900  98.2217 279.2801 0008776 120.7161 239.4906 14.61805700205835
STARLINK-4362           
1 53043U 22077A   26136.76436388 -.00001767  00000+0 -11839-3 0  9993
2 53043  97.4862 316.9287 0001742  89.2042 270.9385 15.05661086211150
LARES-2                 
1 53105U 22080A   26127.16150228 -.00000008  00000+0  00000+0 0  9996
2 53105  70.1704 319.3995 0005357 343.8104  16.2342  6.38965197 89040
GREENCUBE (IO-117)      
1 53109U 22080E   26136.43447080 -.00000003  00000+0  00000+0 0  9990
2 53109  70.1434 309.2922 0008816 296.9744  63.0015  6.42583311 90029
STARLINK-4410           
1 53204U 22084R   26136.83335647  .00258040  00000+0  12017-1 0  9997
2 53204  97.6012 197.4567 0001593  75.8005 216.3471 15.18703276  5776
COSMOS 2558             
1 53323U 22089A   26136.76352375  .00079145  00000+0  67780-3 0  9999
2 53323  97.2261 239.6998 0002564 166.9598 193.1730 15.69185988212898
TECMS                   
1 53346U 22090A   26136.85132319  .00002780  00000+0  12677-3 0  9996
2 53346  97.3150 205.8445 0001377 322.4927  37.6213 15.21452350210040
DONGPO 02               
1 53452U 22098J   26136.78649647  .00074816  00000+0  64954-3 0  9995
2 53452  97.5488 265.4158 0002199 113.3112 246.8380 15.68867269209860
DONGPO 01               
1 53453U 22098K   26136.80350411  .00067605  00000+0  62748-3 0  9994
2 53453  97.5549 266.0266 0000796 153.9785 206.1515 15.67247430209830
