OBJECT_NAME,OBJECT_ID,EPOCH,MEAN_MOTION,ECCENTRICITY,INCLINATION,RA_OF_ASC_NODE,ARG_OF_PERICENTER,MEAN_ANOMALY,EPHEMERIS_TYPE,CLASSIFICATION_TYPE,NORAD_CAT_ID,ELEMENT_SET_NO,REV_AT_EPOCH,BSTAR,MEAN_MOTION_DOT,MEAN_MOTION_DDOT
JILIN-1 GAOFEN 03D15,2022-019R,2026-05-16T17:15:50.832576,15.93618978,.0006213,97.3642,232.5636,227.8658,132.2090,0,U,51839,999,23510,.97126E-3,.347578E-2,.48748E-4
JILIN-1 GAOFEN 03D12,2022-019T,2026-05-16T21:07:57.584640,15.95028030,.0006555,97.3651,232.6857,222.8902,137.1863,0,U,51841,999,23513,.10445E-2,.402805E-2,.66574E-4
2022-023F,2022-023F,2026-05-16T20:28:05.604960,15.17960542,.0128191,63.4483,20.0064,343.8517,15.8525,0,U,51951,999,23295,.72993E-3,.18295E-3,0
MERIDIAN 10,2022-030A,2026-05-16T01:39:18.116352,2.00616194,.6775217,62.6772,144.2440,272.8806,17.7130,0,U,52145,999,3038,0,.257E-5,0
OMNI-L1,2022-033A,2026-05-16T19:08:36.306816,14.82621479,.0005915,97.8396,216.5872,41.0841,319.0817,0,U,52157,999,22280,.13974E-3,.1073E-4,0
ENMAP,2022-033C,2026-05-16T19:46:26.657760,14.74959530,.0001496,97.9794,219.5184,84.4788,275.6592,0,U,52159,999,22203,.6398E-4,.38E-5,0
ARCSAT-1,2022-033E,2026-05-16T11:49:06.083328,15.52788265,.0003547,97.2749,228.3158,326.0448,34.0578,0,U,52161,999,23078,.19138E-3,.1175E-3,0
GLOBAL-18,2022-034B,2026-05-16T18:19:31.820736,15.44891872,.0005373,52.9825,46.6574,139.0212,221.1198,0,U,52196,999,23210,.43303E-3,.20304E-3,0
GAOFEN-3 03,2022-035A,2026-05-16T20:54:01.292256,14.42219476,.0001012,98.4068,145.9046,78.0369,282.0934,0,U,52200,999,21633,.31878E-4,.62E-6,0
DAQI-1,2022-039A,2026-05-16T18:36:27.018144,14.57656677,.0004001,98.1474,76.2790,14.0546,346.0763,0,U,52257,999,21736,.38519E-4,.131E-5,0
BRO-6,2022-047AE,2026-05-16T16:29:43.535616,15.48576272,.0005425,97.3404,227.1882,172.1921,187.9415,0,U,52422,999,22627,.54843E-3,.29229E-3,0
JILIN-1 GAOFEN 3D27,2022-048B,2026-05-16T18:27:34.693056,15.68758990,.0005377,97.5685,248.0419,158.3676,201.7813,0,U,52444,999,22454,.71913E-3,.82606E-3,0
JILIN-1 GAOFEN 3D28,2022-048C,2026-05-16T18:07:28.445376,15.70884510,.0004277,97.5627,248.0760,176.1101,184.0196,0,U,52445,999,22458,.71941E-3,.90266E-3,0
VIGORIDE-3,2022-057AE,2026-05-16T19:55:05.114784,15.26924429,.0007444,97.6562,275.9904,227.4779,132.5831,0,U,52760,999,22037,.15106E-3,.3918E-4,0
ION SCV-006,2022-057AF,2026-05-16T19:33:55.503072,15.44497226,.0016783,97.6062,283.9601,223.9955,135.9958,0,U,52761,999,22127,.17852E-3,.822E-4,0
SHERPA-AC1,2022-057AH,2026-05-16T20:41:46.351392,15.35790847,.0007424,97.6646,284.8024,194.0094,166.0944,0,U,52763,999,22089,.17384E-3,.597E-4,0
OMNI-L2,2022-057AR,2026-05-16T15:28:31.367136,14.81278949,.0008229,97.4729,201.1221,74.1107,286.1013,0,U,52771,999,21572,.11774E-3,.871E-5,0
STEP CUBE LAB-II,2022-065D,2026-05-16T21:15:54.808128,14.63249032,.0009703,98.2176,280.8924,118.7116,241.5062,0,U,52897,999,20692,.119E-3,.565E-5,0
RANDEV,2022-065E,2026-05-16T19:50:54.109824,14.63633955,.0009036,98.2162,281.1712,119.0275,241.1834,0,U,52898,999,20666,.11231E-3,.536E-5,0
SNUGLITE-II,2022-065F,2026-05-16T09:26:23.543520,14.64283145,.00086648,98.2159,281.2890,119.9133,240.2931,0,U,52899,999,20634,.12098939E-3,.59E-5,0
MIMAN,2022-065G,2026-05-16T15:07:57.360864,14.61805700,.0008776,98.2217,279.2801,120.7161,239.4906,0,U,52900,999,20583,.75584E-4,.33E-5,0
STARLINK-4362,2022-077A,2026-05-16T18:20:41.039232,15.05661086,.0001742,97.4862,316.9287,89.2042,270.9385,0,U,53043,999,21115,-.11839E-3,-.1767E-4,0
LARES-2,2022-080A,2026-05-07T03:52:33.796992,6.38965197,.0005357,70.1704,319.3995,343.8104,16.2342,0,U,53105,999,8904,0,-.8E-7,0
GREENCUBE (IO-117),2022-080E,2026-05-16T10:25:38.277120,6.42583311,.00088168,70.1434,309.2922,296.9744,63.0015,0,U,53109,999,9002,0,-.3E-7,0
STARLINK-4410,2022-084R,2026-05-16T20:00:01.999008,15.18703276,.0001593,97.6012,197.4567,75.8005,216.3471,0,U,53204,999,577,.12017E-1,.25804E-2,0
COSMOS 2558,2022-089A,2026-05-16T18:19:28.452000,15.69185988,.0002564,97.2261,239.6998,166.9598,193.1730,0,U,53323,999,21289,.6778E-3,.79145E-3,0
TECMS,2022-090A,2026-05-16T20:25:54.323616,15.21452350,.0001377,97.3150,205.8445,322.4927,37.6213,0,U,53346,999,21004,.12677E-3,.278E-4,0
DONGPO 02,2022-098J,2026-05-16T18:52:33.295008,15.68867269,.0002199,97.5488,265.4158,113.3112,246.8380,0,U,53452,999,20986,.64954E-3,.74816E-3,0
DONGPO 01,2022-098K,2026-05-16T19:17:02.755104,15.67247430,.0000796,97.5549,266.0266,153.9785,206.1515,0,U,53453,999,20983,.62748E-3,.67605E-3,0
